{"type": "FeatureCollection", "features": [ {"type": "Feature", "properties": {"norad_id": 33723, "name": "FENGYUN 1C DEB", "group": "fengyun-1c-debris", "lat": 78.63446329703551, "lon": -57.34161190864869, "alt_km": 887.5714291699878, "timestamp": "2025-12-14T16:47:40.970641+00:00", "meta": {"OBJECT_NAME": "FENGYUN 1C DEB", "OBJECT_ID": "1999-025DHL", "EPOCH": "2025-12-12T11:59:32.258688", "MEAN_MOTION": 14.13293194, "ECCENTRICITY": 0.00984611, "INCLINATION": 99.1542, "RA_OF_ASC_NODE": 67.0692, "ARG_OF_PERICENTER": 331.2683, "MEAN_ANOMALY": 96.9222, "EPHEMERIS_TYPE": 0, "CLASSIFICATION_TYPE": "U", "NORAD_CAT_ID": 33723, "ELEMENT_SET_NO": 999, "REV_AT_EPOCH": 63620, "BSTAR": 0.0028481421, "MEAN_MOTION_DOT": 5.549e-05, "MEAN_MOTION_DDOT": 0}, "tle": {"line1": "1 33723U 99025DHL 25346.49967892  .00005549  00000+0  28481-2 0  9994", "line2": "2 33723  99.1542  67.0692 0098461 331.2683  96.9222 14.13293194636208"}}, "geometry": {"type": "Point", "coordinates": [-57.34161190864869, 78.63446329703551]}}, {"type": "Feature", "properties": {"norad_id": 33724, "name": "FENGYUN 1C DEB", "group": "fengyun-1c-debris", "lat": -53.56447790274124, "lon": 167.1173090528177, "alt_km": 823.1133745808975, "timestamp": "2025-12-14T16:47:40.970651+00:00", "meta": {"OBJECT_NAME": "FENGYUN 1C DEB", "OBJECT_ID": "1999-025DHM", "EPOCH": "2025-12-12T20:17:56.179104", "MEAN_MOTION": 14.19646341, "ECCENTRICITY": 0.00274383, "INCLINATION": 98.6039, "RA_OF_ASC_NODE": 357.1507, "ARG_OF_PERICENTER": 181.2748, "MEAN_ANOMALY": 302.9388, "EPHEMERIS_TYPE": 0, "CLASSIFICATION_TYPE": "U", "NORAD_CAT_ID": 33724, "ELEMENT_SET_NO": 999, "REV_AT_EPOCH": 93963, "BSTAR": 0.00065361765, "MEAN_MOTION_DOT": 1.343e-05, "MEAN_MOTION_DDOT": 0}, "tle": {"line1": "1 33724U 99025DHM 25346.84578911  .00001343  00000+0  65362-3 0  9992", "line2": "2 33724  98.6039 357.1507 0027438 181.2748 302.9388 14.19646341939631"}}, "geometry": {"type": "Point", "coordinates": [167.1173090528177, -53.56447790274124]}}, {"type": "Feature", "properties": {"norad_id": 33726, "name": "FENGYUN 1C DEB", "group": "fengyun-1c-debris", "lat": -7.5750820552758675, "lon": -68.31251532922195, "alt_km": 980.7196301275462, "timestamp": "2025-12-14T16:47:40.970662+00:00", "meta": {"OBJECT_NAME": "FENGYUN 1C DEB", "OBJECT_ID": "1999-025DHP", "EPOCH": "2025-12-13T07:47:11.360256", "MEAN_MOTION": 14.14306927, "ECCENTRICITY": 0.01927508, "INCLINATION": 98.6387, "RA_OF_ASC_NODE": 111.515, "ARG_OF_PERICENTER": 29.4206, "MEAN_ANOMALY": 358.8001, "EPHEMERIS_TYPE": 0, "CLASSIFICATION_TYPE": "U", "NORAD_CAT_ID": 33726, "ELEMENT_SET_NO": 999, "REV_AT_EPOCH": 91940, "BSTAR": 0.00044570328, "MEAN_MOTION_DOT": 9.75e-06, "MEAN_MOTION_DDOT": 0}, "tle": {"line1": "1 33726U 99025DHP 25347.32443704  .00000975  00000+0  44570-3 0  9997", "line2": "2 33726  98.6387 111.5150 0192750  29.4206 358.8001 14.14306927919400"}}, "geometry": {"type": "Point", "coordinates": [-68.31251532922195, -7.5750820552758675]}}, {"type": "Feature", "properties": {"norad_id": 33728, "name": "FENGYUN 1C DEB", "group": "fengyun-1c-debris", "lat": -35.619839487894055, "lon": 51.36249797566155, "alt_km": 638.6050453527614, "timestamp": "2025-12-14T16:47:40.970672+00:00", "meta": {"OBJECT_NAME": "FENGYUN 1C DEB", "OBJECT_ID": "1999-025DHR", "EPOCH": "2025-12-13T21:39:11.326752", "MEAN_MOTION": 14.92646571, "ECCENTRICITY": 0.01477766, "INCLINATION": 98.9796, "RA_OF_ASC_NODE": 43.9483, "ARG_OF_PERICENTER": 211.2845, "MEAN_ANOMALY": 147.9515, "EPHEMERIS_TYPE": 0, "CLASSIFICATION_TYPE": "U", "NORAD_CAT_ID": 33728, "ELEMENT_SET_NO": 999, "REV_AT_EPOCH": 98317, "BSTAR": 0.00067295822, "MEAN_MOTION_DOT": 8.501e-05, "MEAN_MOTION_DDOT": 0}, "tle": {"line1": "1 33728U 99025DHR 25347.90221443  .00008501  00000+0  67296-3 0  9990", "line2": "2 33728  98.9796  43.9483 0147776 211.2845 147.9515 14.92646571983174"}}, "geometry": {"type": "Point", "coordinates": [51.36249797566155, -35.619839487894055]}}, {"type": "Feature", "properties": {"norad_id": 33730, "name": "FENGYUN 1C DEB", "group": "fengyun-1c-debris", "lat": 27.860378602873848, "lon": 41.810469571113046, "alt_km": 654.9321605194646, "timestamp": "2025-12-14T16:47:40.970682+00:00", "meta": {"OBJECT_NAME": "FENGYUN 1C DEB", "OBJECT_ID": "1999-025DHT", "EPOCH": "2025-12-13T09:29:27.938400", "MEAN_MOTION": 14.6348931, "ECCENTRICITY": 0.00395533, "INCLINATION": 99.0574, "RA_OF_ASC_NODE": 45.2157, "ARG_OF_PERICENTER": 9.0495, "MEAN_ANOMALY": 351.1409, "EPHEMERIS_TYPE": 0, "CLASSIFICATION_TYPE": "U", "NORAD_CAT_ID": 33730, "ELEMENT_SET_NO": 999, "REV_AT_EPOCH": 95689, "BSTAR": 0.0027326896, "MEAN_MOTION_DOT": 0.0001429, "MEAN_MOTION_DDOT": 0}, "tle": {"line1": "1 33730U 99025DHT 25347.39546225  .00014290  00000+0  27327-2 0  9996", "line2": "2 33730  99.0574  45.2157 0039553   9.0495 351.1409 14.63489310956897"}}, "geometry": {"type": "Point", "coordinates": [41.810469571113046, 27.860378602873848]}}, {"type": "Feature", "properties": {"norad_id": 33731, "name": "FENGYUN 1C DEB", "group": "fengyun-1c-debris", "lat": 42.06449227481044, "lon": -160.39615793701773, "alt_km": 899.1895322930923, "timestamp": "2025-12-14T16:47:40.970692+00:00", "meta": {"OBJECT_NAME": "FENGYUN 1C DEB", "OBJECT_ID": "1999-025DHU", "EPOCH": "2025-12-12T07:21:42.504480", "MEAN_MOTION": 13.95336601, "ECCENTRICITY": 0.01289523, "INCLINATION": 99.445, "RA_OF_ASC_NODE": 8.5135, "ARG_OF_PERICENTER": 57.2943, "MEAN_ANOMALY": 304.0576, "EPHEMERIS_TYPE": 0, "CLASSIFICATION_TYPE": "U", "NORAD_CAT_ID": 33731, "ELEMENT_SET_NO": 999, "REV_AT_EPOCH": 90443, "BSTAR": 0.0016610321, "MEAN_MOTION_DOT": 2.365e-05, "MEAN_MOTION_DDOT": 0}, "tle": {"line1": "1 33731U 99025DHU 25346.30674195  .00002365  00000+0  16610-2 0  9998", "line2": "2 33731  99.4450   8.5135 0128952  57.2943 304.0576 13.95336601904431"}}, "geometry": {"type": "Point", "coordinates": [-160.39615793701773, 42.06449227481044]}}, {"type": "Feature", "properties": {"norad_id": 33733, "name": "FENGYUN 1C DEB", "group": "fengyun-1c-debris", "lat": 3.8383440752932105, "lon": 73.50139555279453, "alt_km": 845.1945550949076, "timestamp": "2025-12-14T16:47:40.970702+00:00", "meta": {"OBJECT_NAME": "FENGYUN 1C DEB", "OBJECT_ID": "1999-025DHW", "EPOCH": "2025-12-08T04:50:49.402752", "MEAN_MOTION": 14.30867233, "ECCENTRICITY": 0.00809024, "INCLINATION": 99.099, "RA_OF_ASC_NODE": 67.3183, "ARG_OF_PERICENTER": 183.3026, "MEAN_ANOMALY": 206.7882, "EPHEMERIS_TYPE": 0, "CLASSIFICATION_TYPE": "U", "NORAD_CAT_ID": 33733, "ELEMENT_SET_NO": 999, "REV_AT_EPOCH": 90383, "BSTAR": 0.0048281586, "MEAN_MOTION_DOT": 0.00013108, "MEAN_MOTION_DDOT": 0}, "tle": {"line1": "1 33733U 99025DHW 25342.20196068  .00013108  00000+0  48282-2 0  9990", "line2": "2 33733  99.0990  67.3183 0080902 183.3026 206.7882 14.30867233903830"}}, "geometry": {"type": "Point", "coordinates": [73.50139555279453, 3.8383440752932105]}}, {"type": "Feature", "properties": {"norad_id": 33737, "name": "FENGYUN 1C DEB", "group": "fengyun-1c-debris", "lat": 3.0418984208954156, "lon": -177.9979500823353, "alt_km": 877.5747628285617, "timestamp": "2025-12-14T16:47:40.970713+00:00", "meta": {"OBJECT_NAME": "FENGYUN 1C DEB", "OBJECT_ID": "1999-025DJA", "EPOCH": "2025-12-14T00:24:30.756096", "MEAN_MOTION": 14.0300495, "ECCENTRICITY": 0.01283969, "INCLINATION": 98.3378, "RA_OF_ASC_NODE": 181.8228, "ARG_OF_PERICENTER": 279.5077, "MEAN_ANOMALY": 235.6642, "EPHEMERIS_TYPE": 0, "CLASSIFICATION_TYPE": "U", "NORAD_CAT_ID": 33737, "ELEMENT_SET_NO": 999, "REV_AT_EPOCH": 88758, "BSTAR": 0.0015530209, "MEAN_MOTION_DOT": 2.554e-05, "MEAN_MOTION_DDOT": 0}, "tle": {"line1": "1 33737U 99025DJA 25348.01702264  .00002554  00000+0  15530-2 0  9993", "line2": "2 33737  98.3378 181.8228 0128396 279.5077 235.6642 14.03004950887589"}}, "geometry": {"type": "Point", "coordinates": [-177.9979500823353, 3.0418984208954156]}}, {"type": "Feature", "properties": {"norad_id": 33738, "name": "FENGYUN 1C DEB", "group": "fengyun-1c-debris", "lat": -72.764873415837, "lon": -162.57427271364008, "alt_km": 969.5202602286099, "timestamp": "2025-12-14T16:47:40.970723+00:00", "meta": {"OBJECT_NAME": "FENGYUN 1C DEB", "OBJECT_ID": "1999-025DJB", "EPOCH": "2025-12-13T23:15:53.702784", "MEAN_MOTION": 13.99533544, "ECCENTRICITY": 0.01846659, "INCLINATION": 99.1518, "RA_OF_ASC_NODE": 48.003, "ARG_OF_PERICENTER": 18.0671, "MEAN_ANOMALY": 161.0435, "EPHEMERIS_TYPE": 0, "CLASSIFICATION_TYPE": "U", "NORAD_CAT_ID": 33738, "ELEMENT_SET_NO": 999, "REV_AT_EPOCH": 89253, "BSTAR": 0.00063393038, "MEAN_MOTION_DOT": 1.026e-05, "MEAN_MOTION_DDOT": 0}, "tle": {"line1": "1 33738U 99025DJB 25347.96937156  .00001026  00000+0  63393-3 0  9991", "line2": "2 33738  99.1518  48.0030 0184665  18.0671 161.0435 13.99533544892530"}}, "geometry": {"type": "Point", "coordinates": [-162.57427271364008, -72.764873415837]}}, {"type": "Feature", "properties": {"norad_id": 33740, "name": "FENGYUN 1C DEB", "group": "fengyun-1c-debris", "lat": 24.984115527545125, "lon": -2.5348285319662986, "alt_km": 850.8564733370886, "timestamp": "2025-12-14T16:47:40.970732+00:00", "meta": {"OBJECT_NAME": "FENGYUN 1C DEB", "OBJECT_ID": "1999-025DJD", "EPOCH": "2025-12-13T06:40:10.991136", "MEAN_MOTION": 14.12323086, "ECCENTRICITY": 0.0002062, "INCLINATION": 98.6874, "RA_OF_ASC_NODE": 0.1725, "ARG_OF_PERICENTER": 128.1164, "MEAN_ANOMALY": 232.0195, "EPHEMERIS_TYPE": 0, "CLASSIFICATION_TYPE": "U", "NORAD_CAT_ID": 33740, "ELEMENT_SET_NO": 999, "REV_AT_EPOCH": 90154, "BSTAR": 0.00021078194, "MEAN_MOTION_DOT": 3.46e-06, "MEAN_MOTION_DDOT": 0}, "tle": {"line1": "1 33740U 99025DJD 25347.27790499  .00000346  00000+0  21078-3 0  9993", "line2": "2 33740  98.6874   0.1725 0002062 128.1164 232.0195 14.12323086901540"}}, "geometry": {"type": "Point", "coordinates": [-2.5348285319662986, 24.984115527545125]}}]}